0 SL-14 R/B
1 20466U 90010B   13282.33541155  .00000305  00000-0  36675-4 0  7538
2 20466 082.5061 192.2644 0022386 082.3346 053.4547 14.80495801278158
0 SL-14 R/B
1 20466U 90010B   13283.34995670  .00000267  00000-0  31709-4 0  7546
2 20466 082.5061 191.3168 0022349 079.2252 060.5388 14.80496092278301
0 SL-14 R/B
1 20466U 90010B   13285.83675389  .00000279  00000-0  33287-4 0  7562
2 20466 082.5060 188.9940 0022230 071.6245 354.0772 14.80496685278673
0 SL-14 R/B
1 20466U 90010B   13286.85058928  .00000334  00000-0  40358-4 0  7579
2 20466 082.5059 188.0470 0022193 068.5057 357.3987 14.80497219278829
0 SL-14 R/B
1 20466U 90010B   13288.15412944  .00000477  00000-0  59056-4 0  7580
2 20466 082.5057 186.8295 0022107 064.4352 104.7876 14.80499185279013
0 SL-14 R/B
1 20466U 90010B   13289.16634032  .00000394  00000-0  48254-4 0  7593
2 20466 082.5055 185.8840 0022037 061.3223 099.4573 14.80500066279162
0 SL-14 R/B
1 20466U 90010B   13290.18003035  .00000360  00000-0  43815-4 0  7603
2 20466 082.5053 184.9372 0021976 058.1563 102.0609 14.80500640279318
0 SL-14 R/B
1 20466U 90010B   13291.32405028  .00000345  00000-0  41896-4 0  7619
2 20466 082.5051 183.8686 0021901 054.5479 079.3140 14.80501498279482
0 SL-14 R/B
1 20466U 90010B   13292.79375507  .00000383  00000-0  46794-4 0  7624
2 20466 082.5049 182.4958 0021784 049.9469 352.3351 14.80502325279705
0 SL-14 R/B
1 20466U 90010B   13293.81207050  .00000375  00000-0  45756-4 0  7634
2 20466 082.5049 181.5446 0021703 046.7327 019.6347 14.80503199279850
0 SL-14 R/B
1 20466U 90010B   13294.82184461  .00000388  00000-0  47531-4 0  7644
2 20466 082.5049 180.6013 0021621 043.5163 001.4432 14.80504401280002
0 SL-14 R/B
1 20466U 90010B   13296.19452087  .00000375  00000-0  45734-4 0  7658
2 20466 082.5048 179.3190 0021507 039.1659 117.4006 14.80505581280203
